{"type": "FeatureCollection", "features": [ {"type": "Feature", "properties": {"norad_id": 30224, "name": "FENGYUN 1C DEB", "group": "fengyun-1c-debris", "lat": 36.950972088661096, "lon": -141.46977354360396, "alt_km": 1007.0990438217177, "timestamp": "2025-12-18T10:51:26.081425+00:00", "meta": {"OBJECT_NAME": "FENGYUN 1C DEB", "OBJECT_ID": "1999-025WH", "EPOCH": "2025-12-17T15:45:41.477184", "MEAN_MOTION": 13.89870746, "ECCENTRICITY": 0.01110298, "INCLINATION": 99.4835, "RA_OF_ASC_NODE": 30.4966, "ARG_OF_PERICENTER": 330.0634, "MEAN_ANOMALY": 153.2149, "EPHEMERIS_TYPE": 0, "CLASSIFICATION_TYPE": "U", "NORAD_CAT_ID": 30224, "ELEMENT_SET_NO": 999, "REV_AT_EPOCH": 95809, "BSTAR": 0.00032505774, "MEAN_MOTION_DOT": 3.73e-06, "MEAN_MOTION_DDOT": 0}, "tle": {"line1": "1 30224U 99025WH  25351.65673006  .00000373  00000+0  32506-3 0  9996", "line2": "2 30224  99.4835  30.4966 0111029 330.0634 153.2149 13.89870746958091"}}, "geometry": {"type": "Point", "coordinates": [-141.46977354360396, 36.950972088661096]}}, {"type": "Feature", "properties": {"norad_id": 30225, "name": "FENGYUN 1C DEB", "group": "fengyun-1c-debris", "lat": 66.50078633111443, "lon": -140.42488172398666, "alt_km": 781.0814530131256, "timestamp": "2025-12-18T10:51:26.081435+00:00", "meta": {"OBJECT_NAME": "FENGYUN 1C DEB", "OBJECT_ID": "1999-025WJ", "EPOCH": "2025-12-17T16:14:40.164864", "MEAN_MOTION": 14.15187533, "ECCENTRICITY": 0.01004129, "INCLINATION": 98.6594, "RA_OF_ASC_NODE": 18.3047, "ARG_OF_PERICENTER": 71.9512, "MEAN_ANOMALY": 50.3077, "EPHEMERIS_TYPE": 0, "CLASSIFICATION_TYPE": "U", "NORAD_CAT_ID": 30225, "ELEMENT_SET_NO": 999, "REV_AT_EPOCH": 97606, "BSTAR": 0.00014212322, "MEAN_MOTION_DOT": 2.48e-06, "MEAN_MOTION_DDOT": 0}, "tle": {"line1": "1 30225U 99025WJ  25351.67685376  .00000248  00000+0  14212-3 0  9997", "line2": "2 30225  98.6594  18.3047 0100412  71.9512  50.3077 14.15187533976069"}}, "geometry": {"type": "Point", "coordinates": [-140.42488172398666, 66.50078633111443]}}, {"type": "Feature", "properties": {"norad_id": 30229, "name": "FENGYUN 1C DEB", "group": "fengyun-1c-debris", "lat": -22.158537927517948, "lon": -131.1100819790035, "alt_km": 722.7400303304667, "timestamp": "2025-12-18T10:51:26.081446+00:00", "meta": {"OBJECT_NAME": "FENGYUN 1C DEB", "OBJECT_ID": "1999-025WN", "EPOCH": "2025-12-17T16:25:30.057888", "MEAN_MOTION": 14.60628895, "ECCENTRICITY": 0.00371872, "INCLINATION": 99.0628, "RA_OF_ASC_NODE": 51.7773, "ARG_OF_PERICENTER": 25.3959, "MEAN_ANOMALY": 100.8651, "EPHEMERIS_TYPE": 0, "CLASSIFICATION_TYPE": "U", "NORAD_CAT_ID": 30229, "ELEMENT_SET_NO": 999, "REV_AT_EPOCH": 98998, "BSTAR": 0.0013322695, "MEAN_MOTION_DOT": 6.493e-05, "MEAN_MOTION_DDOT": 0}, "tle": {"line1": "1 30229U 99025WN  25351.68437567  .00006493  00000+0  13323-2 0  9998", "line2": "2 30229  99.0628  51.7773 0037187  25.3959 100.8651 14.60628895989984"}}, "geometry": {"type": "Point", "coordinates": [-131.1100819790035, -22.158537927517948]}}, {"type": "Feature", "properties": {"norad_id": 30231, "name": "FENGYUN 1C DEB", "group": "fengyun-1c-debris", "lat": 35.551470210380145, "lon": -136.53525639893616, "alt_km": 911.1541453868731, "timestamp": "2025-12-18T10:51:26.081456+00:00", "meta": {"OBJECT_NAME": "FENGYUN 1C DEB", "OBJECT_ID": "1999-025WQ", "EPOCH": "2025-12-17T02:00:10.855008", "MEAN_MOTION": 14.11654614, "ECCENTRICITY": 0.01282197, "INCLINATION": 98.8047, "RA_OF_ASC_NODE": 35.7619, "ARG_OF_PERICENTER": 16.9365, "MEAN_ANOMALY": 12.8628, "EPHEMERIS_TYPE": 0, "CLASSIFICATION_TYPE": "U", "NORAD_CAT_ID": 30231, "ELEMENT_SET_NO": 999, "REV_AT_EPOCH": 97081, "BSTAR": 0.00053701551, "MEAN_MOTION_DOT": 1.012e-05, "MEAN_MOTION_DDOT": 0}, "tle": {"line1": "1 30231U 99025WQ  25351.08345897  .00001012  00000+0  53702-3 0  9997", "line2": "2 30231  98.8047  35.7619 0128219  16.9365  12.8628 14.11654614970816"}}, "geometry": {"type": "Point", "coordinates": [-136.53525639893616, 35.551470210380145]}}, {"type": "Feature", "properties": {"norad_id": 30232, "name": "FENGYUN 1C DEB", "group": "fengyun-1c-debris", "lat": 70.22012665512786, "lon": 167.74618425440718, "alt_km": 690.1275986119153, "timestamp": "2025-12-18T10:51:26.081467+00:00", "meta": {"OBJECT_NAME": "FENGYUN 1C DEB", "OBJECT_ID": "1999-025WR", "EPOCH": "2025-12-17T13:28:48.487584", "MEAN_MOTION": 14.63628349, "ECCENTRICITY": 0.01356921, "INCLINATION": 98.6933, "RA_OF_ASC_NODE": 191.9863, "ARG_OF_PERICENTER": 334.8848, "MEAN_ANOMALY": 85.3061, "EPHEMERIS_TYPE": 0, "CLASSIFICATION_TYPE": "U", "NORAD_CAT_ID": 30232, "ELEMENT_SET_NO": 999, "REV_AT_EPOCH": 99822, "BSTAR": 0.00055573774, "MEAN_MOTION_DOT": 3.24e-05, "MEAN_MOTION_DDOT": 0}, "tle": {"line1": "1 30232U 99025WR  25351.56167231  .00003240  00000+0  55574-3 0  9999", "line2": "2 30232  98.6933 191.9863 0135692 334.8848  85.3061 14.63628349998220"}}, "geometry": {"type": "Point", "coordinates": [167.74618425440718, 70.22012665512786]}}, {"type": "Feature", "properties": {"norad_id": 30234, "name": "FENGYUN 1C DEB", "group": "fengyun-1c-debris", "lat": 80.80534845685528, "lon": -107.11574472916473, "alt_km": 788.4721419768484, "timestamp": "2025-12-18T10:51:26.081477+00:00", "meta": {"OBJECT_NAME": "FENGYUN 1C DEB", "OBJECT_ID": "1999-025WT", "EPOCH": "2025-12-17T13:06:09.114912", "MEAN_MOTION": 14.16871004, "ECCENTRICITY": 0.0066931, "INCLINATION": 98.6337, "RA_OF_ASC_NODE": 2.1828, "ARG_OF_PERICENTER": 61.5372, "MEAN_ANOMALY": 90.2456, "EPHEMERIS_TYPE": 0, "CLASSIFICATION_TYPE": "U", "NORAD_CAT_ID": 30234, "ELEMENT_SET_NO": 999, "REV_AT_EPOCH": 97524, "BSTAR": 0.00029726944, "MEAN_MOTION_DOT": 5.67e-06, "MEAN_MOTION_DDOT": 0}, "tle": {"line1": "1 30234U 99025WT  25351.54593883  .00000567  00000+0  29727-3 0  9995", "line2": "2 30234  98.6337   2.1828 0066931  61.5372  90.2456 14.16871004975245"}}, "geometry": {"type": "Point", "coordinates": [-107.11574472916473, 80.80534845685528]}}, {"type": "Feature", "properties": {"norad_id": 30235, "name": "FENGYUN 1C DEB", "group": "fengyun-1c-debris", "lat": -66.83672765169658, "lon": 169.3576332238802, "alt_km": 770.5291564389981, "timestamp": "2025-12-18T10:51:26.081488+00:00", "meta": {"OBJECT_NAME": "FENGYUN 1C DEB", "OBJECT_ID": "1999-025WU", "EPOCH": "2025-12-17T19:10:21.771840", "MEAN_MOTION": 14.08785261, "ECCENTRICITY": 0.01535545, "INCLINATION": 98.7492, "RA_OF_ASC_NODE": 9.8197, "ARG_OF_PERICENTER": 224.179, "MEAN_ANOMALY": 310.903, "EPHEMERIS_TYPE": 0, "CLASSIFICATION_TYPE": "U", "NORAD_CAT_ID": 30235, "ELEMENT_SET_NO": 999, "REV_AT_EPOCH": 96964, "BSTAR": 0.00035709156, "MEAN_MOTION_DOT": 6.43e-06, "MEAN_MOTION_DDOT": 0}, "tle": {"line1": "1 30235U 99025WU  25351.79886310  .00000643  00000+0  35709-3 0  9995", "line2": "2 30235  98.7492   9.8197 0153554 224.1790 310.9030 14.08785261969648"}}, "geometry": {"type": "Point", "coordinates": [169.3576332238802, -66.83672765169658]}}, {"type": "Feature", "properties": {"norad_id": 30237, "name": "FENGYUN 1C DEB", "group": "fengyun-1c-debris", "lat": 57.514286615299525, "lon": -70.49135497606682, "alt_km": 759.6494285910558, "timestamp": "2025-12-18T10:51:26.081498+00:00", "meta": {"OBJECT_NAME": "FENGYUN 1C DEB", "OBJECT_ID": "1999-025WW", "EPOCH": "2025-12-17T06:12:55.814976", "MEAN_MOTION": 14.40955267, "ECCENTRICITY": 0.00143154, "INCLINATION": 98.8259, "RA_OF_ASC_NODE": 94.1535, "ARG_OF_PERICENTER": 291.0385, "MEAN_ANOMALY": 123.1282, "EPHEMERIS_TYPE": 0, "CLASSIFICATION_TYPE": "U", "NORAD_CAT_ID": 30237, "ELEMENT_SET_NO": 999, "REV_AT_EPOCH": 97763, "BSTAR": 0.0018489547, "MEAN_MOTION_DOT": 5.902e-05, "MEAN_MOTION_DDOT": 0}, "tle": {"line1": "1 30237U 99025WW  25351.25897934  .00005902  00000+0  18490-2 0  9992", "line2": "2 30237  98.8259  94.1535 0014315 291.0385 123.1282 14.40955267977631"}}, "geometry": {"type": "Point", "coordinates": [-70.49135497606682, 57.514286615299525]}}, {"type": "Feature", "properties": {"norad_id": 30239, "name": "FENGYUN 1C DEB", "group": "fengyun-1c-debris", "lat": -43.14991689848023, "lon": -50.06169228988408, "alt_km": 2981.5997515642257, "timestamp": "2025-12-18T10:51:26.081508+00:00", "meta": {"OBJECT_NAME": "FENGYUN 1C DEB", "OBJECT_ID": "1999-025WY", "EPOCH": "2025-12-16T09:01:14.767968", "MEAN_MOTION": 11.38164037, "ECCENTRICITY": 0.1348508, "INCLINATION": 99.5745, "RA_OF_ASC_NODE": 137.6508, "ARG_OF_PERICENTER": 23.9596, "MEAN_ANOMALY": 341.8618, "EPHEMERIS_TYPE": 0, "CLASSIFICATION_TYPE": "U", "NORAD_CAT_ID": 30239, "ELEMENT_SET_NO": 999, "REV_AT_EPOCH": 54576, "BSTAR": 0.017092621, "MEAN_MOTION_DOT": 5.72e-05, "MEAN_MOTION_DDOT": 0}, "tle": {"line1": "1 30239U 99025WY  25350.37586537  .00005720  00000+0  17093-1 0  9995", "line2": "2 30239  99.5745 137.6508 1348508  23.9596 341.8618 11.38164037545763"}}, "geometry": {"type": "Point", "coordinates": [-50.06169228988408, -43.14991689848023]}}, {"type": "Feature", "properties": {"norad_id": 30241, "name": "FENGYUN 1C DEB", "group": "fengyun-1c-debris", "lat": 51.1538681037368, "lon": -43.03112077773206, "alt_km": 806.0692507693475, "timestamp": "2025-12-18T10:51:26.081519+00:00", "meta": {"OBJECT_NAME": "FENGYUN 1C DEB", "OBJECT_ID": "1999-025XA", "EPOCH": "2025-12-17T21:13:27.529824", "MEAN_MOTION": 14.09552434, "ECCENTRICITY": 0.01467208, "INCLINATION": 99.1487, "RA_OF_ASC_NODE": 124.8491, "ARG_OF_PERICENTER": 66.8035, "MEAN_ANOMALY": 58.701, "EPHEMERIS_TYPE": 0, "CLASSIFICATION_TYPE": "U", "NORAD_CAT_ID": 30241, "ELEMENT_SET_NO": 999, "REV_AT_EPOCH": 96984, "BSTAR": 0.00022832998, "MEAN_MOTION_DOT": 3.96e-06, "MEAN_MOTION_DDOT": 0}, "tle": {"line1": "1 30241U 99025XA  25351.88434641  .00000396  00000+0  22833-3 0  9997", "line2": "2 30241  99.1487 124.8491 0146720  66.8035  58.7010 14.09552434969841"}}, "geometry": {"type": "Point", "coordinates": [-43.03112077773206, 51.1538681037368]}}]}